ONEWEB-0083             
1 45435U 20020M   25345.21333793  .00000218  00000+0  57873-3 0  9998
2 45435  87.8863  58.4835 0001706 100.7053 259.4267 13.11415594278035
ONEWEB-0095             
1 45436U 20020N   25345.20415072  .00000524  00000+0  14440-2 0  9991
2 45436  87.8858  58.4966 0001181 125.9467 234.1771 13.11413986278033
ONEWEB-0092             
1 45437U 20020P   25345.25232749 -.00000137  00000+0 -42218-3 0  9992
2 45437  87.8863  58.4857 0001549 110.1264 250.0030 13.11419354278151
ONEWEB-0085             
1 45438U 20020Q   25345.21247820  .00000372  00000+0  10143-2 0  9995
2 45438  87.8857  58.5024 0001701 104.5103 255.6214 13.11417495278037
ONEWEB-0096             
1 45439U 20020R   25345.21419831  .00000260  00000+0  69871-3 0  9998
2 45439  87.8864  58.4822 0001783 105.8906 254.2418 13.11417479278028
ONEWEB-0037             
1 45440U 20020S   25345.27097721  .00000526  00000+0  14478-2 0  9993
2 45440  87.8876  58.4407 0001650 106.3180 253.8129 13.11419666278063
ONEWEB-0042             
1 45441U 20020T   25345.28015988  .00000599  00000+0  16538-2 0  9999
2 45441  87.8866  58.4689 0001717 107.4130 252.7186 13.11418563278039
ONEWEB-0098             
1 45442U 20020U   25345.27607175  .00000552  00000+0  15209-2 0  9997
2 45442  87.8867  58.4815 0001634 100.5566 259.5746 13.11416330278012
ONEWEB-0055             
1 45443U 20020V   25345.25910559  .00000120  00000+0  30237-3 0  9999
2 45443  87.8870  58.4854 0001676 101.5084 258.6232 13.11420695277986
ONEWEB-0093             
1 45444U 20020W   25345.23466474 -.00000442  00000+0 -12841-2 0  9999
2 45444  87.8868  58.4775 0002087 111.5222 248.6128 13.11416390278046
ONEWEB-0029             
1 45445U 20020X   25345.25063297 -.00000214  00000+0 -63940-3 0  9992
2 45445  87.8869  58.4865 0001873 103.5401 256.5935 13.11418864278020
ONEWEB-0068             
1 45446U 20020Y   25345.23439216 -.00000405  00000+0 -11797-2 0  9993
2 45446  87.8869  58.4794 0001928 104.1674 255.9668 13.11417536277965
ONEWEB-0046             
1 45447U 20020Z   25343.16592577  .00011790  00000+0  33142-1 0  9998
2 45447  87.8864  58.8989 0002304  89.7730 270.3662 13.11512698277703
ONEWEB-0063             
1 45448U 20020AA  25345.25488874 -.00000916  00000+0 -26212-2 0  9996
2 45448  87.8880  58.4806 0001604 112.4293 247.7005 13.11408619278062
ONEWEB-0019             
1 45449U 20020AB  25345.22512531 -.00000187  00000+0 -55973-3 0  9999
2 45449  87.8855  58.4945 0001738  98.9958 261.1367 13.11989946277903
ONEWEB-0094             
1 45450U 20020AC  25345.18496672 -.00000029  00000+0 -10728-3 0  9997
2 45450  87.9125  43.2178 0001877  97.9817 262.1528 13.17652608281557
