[{"OBJECT_NAME":"ONEWEB-0083","OBJECT_ID":"2020-020M","EPOCH":"2025-12-11T05:07:12.397152","MEAN_MOTION":13.11415594,"ECCENTRICITY":0.00017068,"INCLINATION":87.8863,"RA_OF_ASC_NODE":58.4835,"ARG_OF_PERICENTER":100.7053,"MEAN_ANOMALY":259.4267,"EPHEMERIS_TYPE":0,"CLASSIFICATION_TYPE":"U","NORAD_CAT_ID":45435,"ELEMENT_SET_NO":999,"REV_AT_EPOCH":27803,"BSTAR":0.00057873389,"MEAN_MOTION_DOT":2.18e-6,"MEAN_MOTION_DDOT":0},{"OBJECT_NAME":"ONEWEB-0095","OBJECT_ID":"2020-020N","EPOCH":"2025-12-11T04:53:58.622208","MEAN_MOTION":13.11413986,"ECCENTRICITY":0.0001181,"INCLINATION":87.8858,"RA_OF_ASC_NODE":58.4966,"ARG_OF_PERICENTER":125.9467,"MEAN_ANOMALY":234.1771,"EPHEMERIS_TYPE":0,"CLASSIFICATION_TYPE":"U","NORAD_CAT_ID":45436,"ELEMENT_SET_NO":999,"REV_AT_EPOCH":27803,"BSTAR":0.0014439942,"MEAN_MOTION_DOT":5.24e-6,"MEAN_MOTION_DDOT":0},{"OBJECT_NAME":"ONEWEB-0092","OBJECT_ID":"2020-020P","EPOCH":"2025-12-11T06:03:21.095136","MEAN_MOTION":13.11419354,"ECCENTRICITY":0.00015491,"INCLINATION":87.8863,"RA_OF_ASC_NODE":58.4857,"ARG_OF_PERICENTER":110.1264,"MEAN_ANOMALY":250.003,"EPHEMERIS_TYPE":0,"CLASSIFICATION_TYPE":"U","NORAD_CAT_ID":45437,"ELEMENT_SET_NO":999,"REV_AT_EPOCH":27815,"BSTAR":-0.00042217879,"MEAN_MOTION_DOT":-1.37e-6,"MEAN_MOTION_DDOT":0},{"OBJECT_NAME":"ONEWEB-0085","OBJECT_ID":"2020-020Q","EPOCH":"2025-12-11T05:05:58.116480","MEAN_MOTION":13.11417495,"ECCENTRICITY":0.00017012,"INCLINATION":87.8857,"RA_OF_ASC_NODE":58.5024,"ARG_OF_PERICENTER":104.5103,"MEAN_ANOMALY":255.6214,"EPHEMERIS_TYPE":0,"CLASSIFICATION_TYPE":"U","NORAD_CAT_ID":45438,"ELEMENT_SET_NO":999,"REV_AT_EPOCH":27803,"BSTAR":0.001014271,"MEAN_MOTION_DOT":3.72e-6,"MEAN_MOTION_DDOT":0},{"OBJECT_NAME":"ONEWEB-0096","OBJECT_ID":"2020-020R","EPOCH":"2025-12-11T05:08:26.733984","MEAN_MOTION":13.11417479,"ECCENTRICITY":0.00017836,"INCLINATION":87.8864,"RA_OF_ASC_NODE":58.4822,"ARG_OF_PERICENTER":105.8906,"MEAN_ANOMALY":254.2418,"EPHEMERIS_TYPE":0,"CLASSIFICATION_TYPE":"U","NORAD_CAT_ID":45439,"ELEMENT_SET_NO":999,"REV_AT_EPOCH":27802,"BSTAR":0.00069871086,"MEAN_MOTION_DOT":2.6e-6,"MEAN_MOTION_DDOT":0},{"OBJECT_NAME":"ONEWEB-0037","OBJECT_ID":"2020-020S","EPOCH":"2025-12-11T06:30:12.430944","MEAN_MOTION":13.11419666,"ECCENTRICITY":0.00016504,"INCLINATION":87.8876,"RA_OF_ASC_NODE":58.4407,"ARG_OF_PERICENTER":106.318,"MEAN_ANOMALY":253.8129,"EPHEMERIS_TYPE":0,"CLASSIFICATION_TYPE":"U","NORAD_CAT_ID":45440,"ELEMENT_SET_NO":999,"REV_AT_EPOCH":27806,"BSTAR":0.0014477677,"MEAN_MOTION_DOT":5.26e-6,"MEAN_MOTION_DDOT":0},{"OBJECT_NAME":"ONEWEB-0042","OBJECT_ID":"2020-020T","EPOCH":"2025-12-11T06:43:25.813632","MEAN_MOTION":13.11418563,"ECCENTRICITY":0.00017174,"INCLINATION":87.8866,"RA_OF_ASC_NODE":58.4689,"ARG_OF_PERICENTER":107.413,"MEAN_ANOMALY":252.7186,"EPHEMERIS_TYPE":0,"CLASSIFICATION_TYPE":"U","NORAD_CAT_ID":45441,"ELEMENT_SET_NO":999,"REV_AT_EPOCH":27803,"BSTAR":0.0016537882,"MEAN_MOTION_DOT":5.99e-6,"MEAN_MOTION_DDOT":0},{"OBJECT_NAME":"ONEWEB-0098","OBJECT_ID":"2020-020U","EPOCH":"2025-12-11T06:37:32.599200","MEAN_MOTION":13.1141633,"ECCENTRICITY":0.00016349,"INCLINATION":87.8867,"RA_OF_ASC_NODE":58.4815,"ARG_OF_PERICENTER":100.5566,"MEAN_ANOMALY":259.5746,"EPHEMERIS_TYPE":0,"CLASSIFICATION_TYPE":"U","NORAD_CAT_ID":45442,"ELEMENT_SET_NO":999,"REV_AT_EPOCH":27801,"BSTAR":0.0015209136,"MEAN_MOTION_DOT":5.52e-6,"MEAN_MOTION_DDOT":0},{"OBJECT_NAME":"ONEWEB-0055","OBJECT_ID":"2020-020V","EPOCH":"2025-12-11T06:13:06.722976","MEAN_MOTION":13.11420695,"ECCENTRICITY":0.0001676,"INCLINATION":87.887,"RA_OF_ASC_NODE":58.4854,"ARG_OF_PERICENTER":101.5084,"MEAN_ANOMALY":258.6232,"EPHEMERIS_TYPE":0,"CLASSIFICATION_TYPE":"U","NORAD_CAT_ID":45443,"ELEMENT_SET_NO":999,"REV_AT_EPOCH":27798,"BSTAR":0.00030237019,"MEAN_MOTION_DOT":1.2e-6,"MEAN_MOTION_DDOT":0},{"OBJECT_NAME":"ONEWEB-0093","OBJECT_ID":"2020-020W","EPOCH":"2025-12-11T05:37:55.033536","MEAN_MOTION":13.1141639,"ECCENTRICITY":0.00020871,"INCLINATION":87.8868,"RA_OF_ASC_NODE":58.4775,"ARG_OF_PERICENTER":111.5222,"MEAN_ANOMALY":248.6128,"EPHEMERIS_TYPE":0,"CLASSIFICATION_TYPE":"U","NORAD_CAT_ID":45444,"ELEMENT_SET_NO":999,"REV_AT_EPOCH":27804,"BSTAR":-0.0012840577,"MEAN_MOTION_DOT":-4.42e-6,"MEAN_MOTION_DDOT":0},{"OBJECT_NAME":"ONEWEB-0029","OBJECT_ID":"2020-020X","EPOCH":"2025-12-11T06:00:54.688608","MEAN_MOTION":13.11418864,"ECCENTRICITY":0.00018739,"INCLINATION":87.8869,"RA_OF_ASC_NODE":58.4865,"ARG_OF_PERICENTER":103.5401,"MEAN_ANOMALY":256.5935,"EPHEMERIS_TYPE":0,"CLASSIFICATION_TYPE":"U","NORAD_CAT_ID":45445,"ELEMENT_SET_NO":999,"REV_AT_EPOCH":27802,"BSTAR":-0.00063940113,"MEAN_MOTION_DOT":-2.14e-6,"MEAN_MOTION_DDOT":0},{"OBJECT_NAME":"ONEWEB-0068","OBJECT_ID":"2020-020Y","EPOCH":"2025-12-11T05:37:31.482624","MEAN_MOTION":13.11417536,"ECCENTRICITY":0.00019282,"INCLINATION":87.8869,"RA_OF_ASC_NODE":58.4794,"ARG_OF_PERICENTER":104.1674,"MEAN_ANOMALY":255.9668,"EPHEMERIS_TYPE":0,"CLASSIFICATION_TYPE":"U","NORAD_CAT_ID":45446,"ELEMENT_SET_NO":999,"REV_AT_EPOCH":27796,"BSTAR":-0.0011797328,"MEAN_MOTION_DOT":-4.05e-6,"MEAN_MOTION_DDOT":0},{"OBJECT_NAME":"ONEWEB-0046","OBJECT_ID":"2020-020Z","EPOCH":"2025-12-09T03:58:55.986528","MEAN_MOTION":13.11512698,"ECCENTRICITY":0.00023049,"INCLINATION":87.8864,"RA_OF_ASC_NODE":58.8989,"ARG_OF_PERICENTER":89.773,"MEAN_ANOMALY":270.3662,"EPHEMERIS_TYPE":0,"CLASSIFICATION_TYPE":"U","NORAD_CAT_ID":45447,"ELEMENT_SET_NO":999,"REV_AT_EPOCH":27770,"BSTAR":0.033142394,"MEAN_MOTION_DOT":0.0001179,"MEAN_MOTION_DDOT":0},{"OBJECT_NAME":"ONEWEB-0063","OBJECT_ID":"2020-020AA","EPOCH":"2025-12-11T06:07:02.387136","MEAN_MOTION":13.11408619,"ECCENTRICITY":0.00016042,"INCLINATION":87.888,"RA_OF_ASC_NODE":58.4806,"ARG_OF_PERICENTER":112.4293,"MEAN_ANOMALY":247.7005,"EPHEMERIS_TYPE":0,"CLASSIFICATION_TYPE":"U","NORAD_CAT_ID":45448,"ELEMENT_SET_NO":999,"REV_AT_EPOCH":27806,"BSTAR":-0.0026211819,"MEAN_MOTION_DOT":-9.16e-6,"MEAN_MOTION_DDOT":0},{"OBJECT_NAME":"ONEWEB-0019","OBJECT_ID":"2020-020AB","EPOCH":"2025-12-11T05:24:10.826784","MEAN_MOTION":13.11989946,"ECCENTRICITY":0.0001738,"INCLINATION":87.8855,"RA_OF_ASC_NODE":58.4945,"ARG_OF_PERICENTER":98.9958,"MEAN_ANOMALY":261.1367,"EPHEMERIS_TYPE":0,"CLASSIFICATION_TYPE":"U","NORAD_CAT_ID":45449,"ELEMENT_SET_NO":999,"REV_AT_EPOCH":27790,"BSTAR":-0.00055973272,"MEAN_MOTION_DOT":-1.87e-6,"MEAN_MOTION_DDOT":0},{"OBJECT_NAME":"ONEWEB-0094","OBJECT_ID":"2020-020AC","EPOCH":"2025-12-11T04:26:21.124608","MEAN_MOTION":13.17652608,"ECCENTRICITY":0.00018774,"INCLINATION":87.9125,"RA_OF_ASC_NODE":43.2178,"ARG_OF_PERICENTER":97.9817,"MEAN_ANOMALY":262.1528,"EPHEMERIS_TYPE":0,"CLASSIFICATION_TYPE":"U","NORAD_CAT_ID":45450,"ELEMENT_SET_NO":999,"REV_AT_EPOCH":28155,"BSTAR":-0.00010728347,"MEAN_MOTION_DOT":-2.9e-7,"MEAN_MOTION_DDOT":0}]
